MALLIGYONG-1            
1 58400U 23179A   24140.12355450  .00012177  00000+0  52592-3 0  9998
2 58400  97.4080  27.4208 0009367  16.6700 343.4842 15.22604873 27303
